GLOBALSTAR M045         
1 25676U 99019A   25200.79127344 -.00000072  00000+0  19032-3 0  9997
2 25676  51.9936 212.3413 0000361 265.5101 265.1921 12.27064144197393
GLOBALSTAR M019         
1 25677U 99019B   25200.69790219 -.00000016  00000+0  76706-3 0  9993
2 25677  51.9900 345.2603 0001632  59.1086 313.8019 12.13874306189094
GLOBALSTAR M044         
1 25678U 99019C   25200.70084788 -.00000103  00000+0 -26839-3 0  9993
2 25678  51.9986 300.6832 0006585 106.2892  43.3257 11.90254616175194
GLOBALSTAR M042         
1 25679U 99019D   25200.80387448 -.00000089  00000+0  28904-4 0  9992
2 25679  52.0037 318.8781 0002776  20.3937 150.6382 12.22084445189241
GLOBALSTAR M025         
1 25770U 99031A   25200.90938750 -.00000072  00000+0 -13382-3 0  9993
2 25770  51.9827  83.4681 0001116 191.8372 283.8129 11.22560660485385
GLOBALSTAR M049         
1 25771U 99031B   25200.79621656 -.00000088  00000+0 -79415-3 0  9991
2 25771  51.9872 120.1328 0003377  55.6079 304.5036 11.12117149121053
GLOBALSTAR M047         
1 25772U 99031C   25200.46989491 -.00000074  00000+0 -13352-3 0  9993
2 25772  51.9828 114.7573 0016732 320.2171  39.7408 11.31929062474764
GLOBALSTAR M052         
1 25773U 99031D   25200.79603103 -.00000077  00000+0 -37915-3 0  9997
2 25773  51.9831 228.3502 0002937 229.6750 301.3540 11.15060219482148
